CCSDS_OMM_VERS = 2.0
CREATION_DATE  = 
ORIGINATOR     = 

OBJECT_NAME    = CZ-2C R/B
OBJECT_ID      = 2022-132E
CENTER_NAME    = EARTH
REF_FRAME      = TEME
TIME_SYSTEM    = UTC
MEAN_ELEMENT_THEORY = SGP/SGP4

EPOCH          = 2025-12-18T06:28:03.052128
MEAN_MOTION    = 15.55149763
ECCENTRICITY   = .00222535
INCLINATION    = 97.2938
RA_OF_ASC_NODE = 348.5747
ARG_OF_PERICENTER = 38.5114
MEAN_ANOMALY   = 321.7723

EPHEMERIS_TYPE = 0
CLASSIFICATION_TYPE = U
NORAD_CAT_ID   = 54039
ELEMENT_SET_NO = 999
REV_AT_EPOCH   = 17769
BSTAR          = .43468723E-3
MEAN_MOTION_DOT = .29584E-3
MEAN_MOTION_DDOT = 0

CCSDS_OMM_VERS = 2.0
CREATION_DATE  = 
ORIGINATOR     = 

OBJECT_NAME    = GSLV R/B
OBJECT_ID      = 2022-138AN
CENTER_NAME    = EARTH
REF_FRAME      = TEME
TIME_SYSTEM    = UTC
MEAN_ELEMENT_THEORY = SGP/SGP4

EPOCH          = 2025-12-18T06:33:36.124992
MEAN_MOTION    = 14.96158567
ECCENTRICITY   = .00242382
INCLINATION    = 87.3820
RA_OF_ASC_NODE = 193.6209
ARG_OF_PERICENTER = 87.5867
MEAN_ANOMALY   = 272.8139

EPHEMERIS_TYPE = 0
CLASSIFICATION_TYPE = U
NORAD_CAT_ID   = 54149
ELEMENT_SET_NO = 999
REV_AT_EPOCH   = 17175
BSTAR          = .14579001E-3
MEAN_MOTION_DOT = .168E-4
MEAN_MOTION_DDOT = 0

CCSDS_OMM_VERS = 2.0
CREATION_DATE  = 
ORIGINATOR     = 

OBJECT_NAME    = XRISM
OBJECT_ID      = 2023-137A
CENTER_NAME    = EARTH
REF_FRAME      = TEME
TIME_SYSTEM    = UTC
MEAN_ELEMENT_THEORY = SGP/SGP4

EPOCH          = 2025-12-17T14:13:09.671520
MEAN_MOTION    = 15.10382851
ECCENTRICITY   = .00077399
INCLINATION    = 31.0022
RA_OF_ASC_NODE = 94.2108
ARG_OF_PERICENTER = 294.0111
MEAN_ANOMALY   = 65.9717

EPHEMERIS_TYPE = 0
CLASSIFICATION_TYPE = U
NORAD_CAT_ID   = 57800
ELEMENT_SET_NO = 999
REV_AT_EPOCH   = 12536
BSTAR          = .23322241E-3
MEAN_MOTION_DOT = .4021E-4
MEAN_MOTION_DDOT = 0

CCSDS_OMM_VERS = 2.0
CREATION_DATE  = 
ORIGINATOR     = 

OBJECT_NAME    = ACS3
OBJECT_ID      = 2024-077B
CENTER_NAME    = EARTH
REF_FRAME      = TEME
TIME_SYSTEM    = UTC
MEAN_ELEMENT_THEORY = SGP/SGP4

EPOCH          = 2025-12-18T04:04:22.614816
MEAN_MOTION    = 13.85745740
ECCENTRICITY   = .00765503
INCLINATION    = 97.2639
RA_OF_ASC_NODE = 306.5628
ARG_OF_PERICENTER = 325.0382
MEAN_ANOMALY   = 34.5766

EPHEMERIS_TYPE = 0
CLASSIFICATION_TYPE = U
NORAD_CAT_ID   = 59588
ELEMENT_SET_NO = 999
REV_AT_EPOCH   = 8289
BSTAR          = .17466595E-1
MEAN_MOTION_DOT = .20488E-3
MEAN_MOTION_DDOT = 0

CCSDS_OMM_VERS = 2.0
CREATION_DATE  = 
ORIGINATOR     = 

OBJECT_NAME    = SZ-21 MODULE
OBJECT_ID      = 2025-246C
CENTER_NAME    = EARTH
REF_FRAME      = TEME
TIME_SYSTEM    = UTC
MEAN_ELEMENT_THEORY = SGP/SGP4

EPOCH          = 2025-12-18T03:55:20.605152
MEAN_MOTION    = 15.62762889
ECCENTRICITY   = .00058648
INCLINATION    = 41.4774
RA_OF_ASC_NODE = 342.9545
ARG_OF_PERICENTER = 288.8905
MEAN_ANOMALY   = 71.1299

EPHEMERIS_TYPE = 0
CLASSIFICATION_TYPE = U
NORAD_CAT_ID   = 66515
ELEMENT_SET_NO = 999
REV_AT_EPOCH   = 529
BSTAR          = .28266875E-3
MEAN_MOTION_DOT = .25921E-3
MEAN_MOTION_DDOT = 0

