CZ-2C R/B               
1 54039U 22132E   25352.26947977  .00029584  00000+0  43469-3 0  9995
2 54039  97.2938 348.5747 0022253  38.5114 321.7723 15.55149763177696
GSLV R/B                
1 54149U 22138AN  25352.27333478  .00001680  00000+0  14579-3 0  9996
2 54149  87.3820 193.6209 0024238  87.5867 272.8139 14.96158567171758
XRISM                   
1 57800U 23137A   25351.59247305  .00004021  00000+0  23322-3 0  9998
2 57800  31.0022  94.2108 0007739 294.0111  65.9717 15.10382851125364
ACS3                    
1 59588U 24077B   25352.16970619  .00020488  00000+0  17467-1 0  9998
2 59588  97.2639 306.5628 0076550 325.0382  34.5766 13.85745740 82891
SZ-21 MODULE            
1 66515U 25246C   25352.16343293  .00025921  00000+0  28267-3 0  9996
2 66515  41.4774 342.9545 0005864 288.8905  71.1299 15.62762889  5296
